ORBCOMM FM33            
1 25983U 99065D   24131.95706441  .00002641  00000+0  91727-3 0  9994
2 25983  45.0285 107.8635 0008108 210.7976 178.3784 14.37666721278134
ORBCOMM FM36            
1 25984U 99065E   24131.57411556  .00002240  00000+0  81937-3 0  9990
2 25984  45.0390 195.1804 0001324  69.2388 290.8601 14.35558714276515
ORBCOMM FM35            
1 25985U 99065F   24131.61605213  .00001676  00000+0  63051-3 0  9990
2 25985  45.0391 197.6311 0004206 209.8940 150.1668 14.35131709276911
ORBCOMM FM34            
1 25986U 99065G   24131.44725411  .00001811  00000+0  67787-3 0  9996
2 25986  45.0386 198.9618 0002753 158.3102 201.7862 14.35100900277002
ORBCOMM FM38            
1 33060U 08031A   24131.90455081  .00005458  00000+0  78503-3 0  9994
2 33060  48.4417  66.9048 0005120 116.1710 243.9731 14.77518538855185
ORBCOMM FM41            
1 33061U 08031B   24131.81929503  .00004409  00000+0  64403-3 0  9999
2 33061  48.4447  73.9303 0004303  99.8350 283.0753 14.77237177854679
ORBCOMM FM29            
1 33062U 08031C   24131.87662005  .00005423  00000+0  78656-3 0  9999
2 33062  48.4397  81.6947 0006135  98.0984 291.5328 14.77173744854988
ORBCOMM FM39            
1 33063U 08031D   24131.63365065  .00003785  00000+0  57079-3 0  9995
2 33063  48.4401 103.3622 0007076  70.3296 289.8380 14.76175005854250
